{
  "norad_id": 61634,
  "name": "STARLINK-32355",
  "history": [
    {
      "epoch": "2026-03-28T14:13:58.693152",
      "apogee_km": 483.59845899637185,
      "perigee_km": 482.4279467717597,
      "latitude_deg": 2.441726444468577,
      "longitude_deg": 40.3318812798243,
      "semi_major_axis_km": 6861.150202884065,
      "eccentricity": 8.53e-05,
      "inclination_deg": 43.0049,
      "raan_deg": 51.5396,
      "arg_perigee_deg": 314.5095,
      "mean_anomaly_deg": 45.5687,
      "mean_motion_rev_day": 15.27591987
    }
  ]
}