{"fetched_at":"2026-03-29T16:36:15Z","count":15609,"tles":[{"name":"STARLINK-32355","line1":"1 61634U 24191P   26087.59304043 -.00002044  00000+0 -64750-4 0  9995","line2":"2 61634  43.0049  51.5396 0000853 314.5095  45.5687 15.27591987 80382","category":"Starlink"}]}